{"type":"FeatureCollection","features":[{"type":"Feature","id":"grid-132.0-33.3","properties":{"zone_id":"grid-132.0-33.3","population_2020":650.1225,"population_2025":548.3032,"elderly_65plus_2025":333.7528,"mesh_count":25,"classification":"B","source_resolution":"500m mesh aggregated for public bundle"},"geometry":{"type":"Polygon","coordinates":[[[132.0,33.3],[132.1,33.3],[132.1,33.4],[132.0,33.4],[132.0,33.3]]]}},{"type":"Feature","id":"grid-132.1-33.3","properties":{"zone_id":"grid-132.1-33.3","population_2020":1256.2826,"population_2025":1061.8697,"elderly_65plus_2025":612.7423,"mesh_count":21,"classification":"B","source_resolution":"500m mesh aggregated for public bundle"},"geometry":{"type":"Polygon","coordinates":[[[132.1,33.3],[132.2,33.3],[132.2,33.4],[132.1,33.4],[132.1,33.3]]]}},{"type":"Feature","id":"grid-132.1-33.4","properties":{"zone_id":"grid-132.1-33.4","population_2020":933.1756,"population_2025":795.1131,"elderly_65plus_2025":484.7568,"mesh_count":23,"classification":"B","source_resolution":"500m mesh aggregated for public bundle"},"geometry":{"type":"Polygon","coordinates":[[[132.1,33.4],[132.2,33.4],[132.2,33.5],[132.1,33.5],[132.1,33.4]]]}},{"type":"Feature","id":"grid-132.2-33.1","properties":{"zone_id":"grid-132.2-33.1","population_2020":138.9639,"population_2025":128.2824,"elderly_65plus_2025":56.3639,"mesh_count":6,"classification":"B","source_resolution":"500m mesh aggregated for public bundle"},"geometry":{"type":"Polygon","coordinates":[[[132.2,33.1],[132.29999999999998,33.1],[132.29999999999998,33.2],[132.2,33.2],[132.2,33.1]]]}},{"type":"Feature","id":"grid-132.2-33.4","properties":{"zone_id":"grid-132.2-33.4","population_2020":1575.398,"population_2025":1367.8614,"elderly_65plus_2025":735.3972,"mesh_count":44,"classification":"B","source_resolution":"500m mesh aggregated for public bundle"},"geometry":{"type":"Polygon","coordinates":[[[132.2,33.4],[132.29999999999998,33.4],[132.29999999999998,33.5],[132.2,33.5],[132.2,33.4]]]}},{"type":"Feature","id":"grid-132.3-33.1","properties":{"zone_id":"grid-132.3-33.1","population_2020":227.3953,"population_2025":201.0351,"elderly_65plus_2025":129.882,"mesh_count":4,"classification":"B","source_resolution":"500m mesh aggregated for public bundle"},"geometry":{"type":"Polygon","coordinates":[[[132.3,33.1],[132.4,33.1],[132.4,33.2],[132.3,33.2],[132.3,33.1]]]}},{"type":"Feature","id":"grid-132.3-33.2","properties":{"zone_id":"grid-132.3-33.2","population_2020":190.1608,"population_2025":159.7924,"elderly_65plus_2025":110.2441,"mesh_count":8,"classification":"B","source_resolution":"500m mesh aggregated for public bundle"},"geometry":{"type":"Polygon","coordinates":[[[132.3,33.2],[132.4,33.2],[132.4,33.300000000000004],[132.3,33.300000000000004],[132.3,33.2]]]}},{"type":"Feature","id":"grid-132.3-33.3","properties":{"zone_id":"grid-132.3-33.3","population_2020":1846.8163,"population_2025":1626.4251,"elderly_65plus_2025":974.1533,"mesh_count":24,"classification":"B","source_resolution":"500m mesh aggregated for public bundle"},"geometry":{"type":"Polygon","coordinates":[[[132.3,33.3],[132.4,33.3],[132.4,33.4],[132.3,33.4],[132.3,33.3]]]}},{"type":"Feature","id":"grid-132.3-33.4","properties":{"zone_id":"grid-132.3-33.4","population_2020":8549.4728,"population_2025":7753.2373,"elderly_65plus_2025":3190.7579,"mesh_count":68,"classification":"B","source_resolution":"500m mesh aggregated for public bundle"},"geometry":{"type":"Polygon","coordinates":[[[132.3,33.4],[132.4,33.4],[132.4,33.5],[132.3,33.5],[132.3,33.4]]]}},{"type":"Feature","id":"grid-132.3-33.5","properties":{"zone_id":"grid-132.3-33.5","population_2020":365.0279,"population_2025":310.9184,"elderly_65plus_2025":177.3879,"mesh_count":15,"classification":"B","source_resolution":"500m mesh aggregated for public bundle"},"geometry":{"type":"Polygon","coordinates":[[[132.3,33.5],[132.4,33.5],[132.4,33.6],[132.3,33.6],[132.3,33.5]]]}},{"type":"Feature","id":"grid-132.4-32.9","properties":{"zone_id":"grid-132.4-32.9","population_2020":1102.0963,"population_2025":962.4624,"elderly_65plus_2025":626.9409,"mesh_count":20,"classification":"B","source_resolution":"500m mesh aggregated for public bundle"},"geometry":{"type":"Polygon","coordinates":[[[132.4,32.9],[132.5,32.9],[132.5,33.0],[132.4,33.0],[132.4,32.9]]]}},{"type":"Feature","id":"grid-132.4-33.0","properties":{"zone_id":"grid-132.4-33.0","population_2020":2847.665,"population_2025":2563.7222,"elderly_65plus_2025":1290.7457,"mesh_count":64,"classification":"B","source_resolution":"500m mesh aggregated for public bundle"},"geometry":{"type":"Polygon","coordinates":[[[132.4,33.0],[132.5,33.0],[132.5,33.1],[132.4,33.1],[132.4,33.0]]]}},{"type":"Feature","id":"grid-132.4-33.1","properties":{"zone_id":"grid-132.4-33.1","population_2020":3446.3677,"population_2025":3086.6951,"elderly_65plus_2025":1622.8655,"mesh_count":74,"classification":"B","source_resolution":"500m mesh aggregated for public bundle"},"geometry":{"type":"Polygon","coordinates":[[[132.4,33.1],[132.5,33.1],[132.5,33.2],[132.4,33.2],[132.4,33.1]]]}},{"type":"Feature","id":"grid-132.4-33.2","properties":{"zone_id":"grid-132.4-33.2","population_2020":1291.5594,"population_2025":1150.2801,"elderly_65plus_2025":578.9416,"mesh_count":25,"classification":"B","source_resolution":"500m mesh aggregated for public bundle"},"geometry":{"type":"Polygon","coordinates":[[[132.4,33.2],[132.5,33.2],[132.5,33.300000000000004],[132.4,33.300000000000004],[132.4,33.2]]]}},{"type":"Feature","id":"grid-132.4-33.3","properties":{"zone_id":"grid-132.4-33.3","population_2020":11143.5933,"population_2025":10007.1816,"elderly_65plus_2025":5084.2867,"mesh_count":120,"classification":"B","source_resolution":"500m mesh aggregated for public bundle"},"geometry":{"type":"Polygon","coordinates":[[[132.4,33.3],[132.5,33.3],[132.5,33.4],[132.4,33.4],[132.4,33.3]]]}},{"type":"Feature","id":"grid-132.4-33.4","properties":{"zone_id":"grid-132.4-33.4","population_2020":26002.6285,"population_2025":23554.134,"elderly_65plus_2025":10314.5338,"mesh_count":181,"classification":"B","source_resolution":"500m mesh aggregated for public bundle"},"geometry":{"type":"Polygon","coordinates":[[[132.4,33.4],[132.5,33.4],[132.5,33.5],[132.4,33.5],[132.4,33.4]]]}},{"type":"Feature","id":"grid-132.4-33.5","properties":{"zone_id":"grid-132.4-33.5","population_2020":3321.3344,"population_2025":2880.3677,"elderly_65plus_2025":1615.0643,"mesh_count":114,"classification":"B","source_resolution":"500m mesh aggregated for public bundle"},"geometry":{"type":"Polygon","coordinates":[[[132.4,33.5],[132.5,33.5],[132.5,33.6],[132.4,33.6],[132.4,33.5]]]}},{"type":"Feature","id":"grid-132.4-33.6","properties":{"zone_id":"grid-132.4-33.6","population_2020":2317.9717,"population_2025":2039.6245,"elderly_65plus_2025":1035.4441,"mesh_count":19,"classification":"B","source_resolution":"500m mesh aggregated for public bundle"},"geometry":{"type":"Polygon","coordinates":[[[132.4,33.6],[132.5,33.6],[132.5,33.7],[132.4,33.7],[132.4,33.6]]]}},{"type":"Feature","id":"grid-132.4-33.7","properties":{"zone_id":"grid-132.4-33.7","population_2020":5.0691,"population_2025":3.8231,"elderly_65plus_2025":3.8231,"mesh_count":2,"classification":"B","source_resolution":"500m mesh aggregated for public bundle"},"geometry":{"type":"Polygon","coordinates":[[[132.4,33.7],[132.5,33.7],[132.5,33.800000000000004],[132.4,33.800000000000004],[132.4,33.7]]]}},{"type":"Feature","id":"grid-132.5-32.9","properties":{"zone_id":"grid-132.5-32.9","population_2020":12529.5431,"population_2025":11223.039,"elderly_65plus_2025":5391.0416,"mesh_count":156,"classification":"B","source_resolution":"500m mesh aggregated for public bundle"},"geometry":{"type":"Polygon","coordinates":[[[132.5,32.9],[132.6,32.9],[132.6,33.0],[132.5,33.0],[132.5,32.9]]]}},{"type":"Feature","id":"grid-132.5-33.0","properties":{"zone_id":"grid-132.5-33.0","population_2020":1238.245,"population_2025":1074.4478,"elderly_65plus_2025":547.5189,"mesh_count":65,"classification":"B","source_resolution":"500m mesh aggregated for public bundle"},"geometry":{"type":"Polygon","coordinates":[[[132.5,33.0],[132.6,33.0],[132.6,33.1],[132.5,33.1],[132.5,33.0]]]}},{"type":"Feature","id":"grid-132.5-33.1","properties":{"zone_id":"grid-132.5-33.1","population_2020":10527.5235,"population_2025":9347.8173,"elderly_65plus_2025":4228.1396,"mesh_count":135,"classification":"B","source_resolution":"500m mesh aggregated for public bundle"},"geometry":{"type":"Polygon","coordinates":[[[132.5,33.1],[132.6,33.1],[132.6,33.2],[132.5,33.2],[132.5,33.1]]]}},{"type":"Feature","id":"grid-132.5-33.2","properties":{"zone_id":"grid-132.5-33.2","population_2020":46350.5425,"population_2025":42162.0646,"elderly_65plus_2025":16864.6713,"mesh_count":188,"classification":"B","source_resolution":"500m mesh aggregated for public bundle"},"geometry":{"type":"Polygon","coordinates":[[[132.5,33.2],[132.6,33.2],[132.6,33.300000000000004],[132.5,33.300000000000004],[132.5,33.2]]]}},{"type":"Feature","id":"grid-132.5-33.3","properties":{"zone_id":"grid-132.5-33.3","population_2020":12952.0873,"population_2025":12009.598,"elderly_65plus_2025":4373.7605,"mesh_count":131,"classification":"B","source_resolution":"500m mesh aggregated for public bundle"},"geometry":{"type":"Polygon","coordinates":[[[132.5,33.3],[132.6,33.3],[132.6,33.4],[132.5,33.4],[132.5,33.3]]]}},{"type":"Feature","id":"grid-132.5-33.4","properties":{"zone_id":"grid-132.5-33.4","population_2020":5734.1486,"population_2025":5205.5886,"elderly_65plus_2025":2282.8658,"mesh_count":136,"classification":"B","source_resolution":"500m mesh aggregated for public bundle"},"geometry":{"type":"Polygon","coordinates":[[[132.5,33.4],[132.6,33.4],[132.6,33.5],[132.5,33.5],[132.5,33.4]]]}},{"type":"Feature","id":"grid-132.5-33.5","properties":{"zone_id":"grid-132.5-33.5","population_2020":26576.0194,"population_2025":24363.8072,"elderly_65plus_2025":8822.0561,"mesh_count":226,"classification":"B","source_resolution":"500m mesh aggregated for public bundle"},"geometry":{"type":"Polygon","coordinates":[[[132.5,33.5],[132.6,33.5],[132.6,33.6],[132.5,33.6],[132.5,33.5]]]}},{"type":"Feature","id":"grid-132.5-33.6","properties":{"zone_id":"grid-132.5-33.6","population_2020":1466.0216,"population_2025":1314.6223,"elderly_65plus_2025":708.2831,"mesh_count":69,"classification":"B","source_resolution":"500m mesh aggregated for public bundle"},"geometry":{"type":"Polygon","coordinates":[[[132.5,33.6],[132.6,33.6],[132.6,33.7],[132.5,33.7],[132.5,33.6]]]}},{"type":"Feature","id":"grid-132.5-33.9","properties":{"zone_id":"grid-132.5-33.9","population_2020":837.9695,"population_2025":736.4136,"elderly_65plus_2025":521.7601,"mesh_count":21,"classification":"B","source_resolution":"500m mesh aggregated for public bundle"},"geometry":{"type":"Polygon","coordinates":[[[132.5,33.9],[132.6,33.9],[132.6,34.0],[132.5,34.0],[132.5,33.9]]]}},{"type":"Feature","id":"grid-132.6-32.9","properties":{"zone_id":"grid-132.6-32.9","population_2020":4055.1537,"population_2025":3554.6152,"elderly_65plus_2025":1749.47,"mesh_count":111,"classification":"B","source_resolution":"500m mesh aggregated for public bundle"},"geometry":{"type":"Polygon","coordinates":[[[132.6,32.9],[132.7,32.9],[132.7,33.0],[132.6,33.0],[132.6,32.9]]]}},{"type":"Feature","id":"grid-132.6-33.0","properties":{"zone_id":"grid-132.6-33.0","population_2020":418.6533,"population_2025":362.8921,"elderly_65plus_2025":226.0025,"mesh_count":36,"classification":"B","source_resolution":"500m mesh aggregated for public bundle"},"geometry":{"type":"Polygon","coordinates":[[[132.6,33.0],[132.7,33.0],[132.7,33.1],[132.6,33.1],[132.6,33.0]]]}},{"type":"Feature","id":"grid-132.6-33.1","properties":{"zone_id":"grid-132.6-33.1","population_2020":213.5399,"population_2025":183.0581,"elderly_65plus_2025":117.8225,"mesh_count":18,"classification":"B","source_resolution":"500m mesh aggregated for public bundle"},"geometry":{"type":"Polygon","coordinates":[[[132.6,33.1],[132.7,33.1],[132.7,33.2],[132.6,33.2],[132.6,33.1]]]}},{"type":"Feature","id":"grid-132.6-33.2","properties":{"zone_id":"grid-132.6-33.2","population_2020":9280.9235,"population_2025":8375.9688,"elderly_65plus_2025":3680.8068,"mesh_count":160,"classification":"B","source_resolution":"500m mesh aggregated for public bundle"},"geometry":{"type":"Polygon","coordinates":[[[132.6,33.2],[132.7,33.2],[132.7,33.300000000000004],[132.6,33.300000000000004],[132.6,33.2]]]}},{"type":"Feature","id":"grid-132.6-33.3","properties":{"zone_id":"grid-132.6-33.3","population_2020":6473.2507,"population_2025":5812.096,"elderly_65plus_2025":2757.4566,"mesh_count":144,"classification":"B","source_resolution":"500m mesh aggregated for public bundle"},"geometry":{"type":"Polygon","coordinates":[[[132.6,33.3],[132.7,33.3],[132.7,33.4],[132.6,33.4],[132.6,33.3]]]}},{"type":"Feature","id":"grid-132.6-33.4","properties":{"zone_id":"grid-132.6-33.4","population_2020":3261.3504,"population_2025":2888.2366,"elderly_65plus_2025":1483.1532,"mesh_count":186,"classification":"B","source_resolution":"500m mesh aggregated for public bundle"},"geometry":{"type":"Polygon","coordinates":[[[132.6,33.4],[132.7,33.4],[132.7,33.5],[132.6,33.5],[132.6,33.4]]]}},{"type":"Feature","id":"grid-132.6-33.5","properties":{"zone_id":"grid-132.6-33.5","population_2020":13303.6267,"population_2025":12158.4946,"elderly_65plus_2025":4763.6282,"mesh_count":210,"classification":"B","source_resolution":"500m mesh aggregated for public bundle"},"geometry":{"type":"Polygon","coordinates":[[[132.6,33.5],[132.7,33.5],[132.7,33.6],[132.6,33.6],[132.6,33.5]]]}},{"type":"Feature","id":"grid-132.6-33.6","properties":{"zone_id":"grid-132.6-33.6","population_2020":3486.6923,"population_2025":3114.9465,"elderly_65plus_2025":1683.1151,"mesh_count":126,"classification":"B","source_resolution":"500m mesh aggregated for public bundle"},"geometry":{"type":"Polygon","coordinates":[[[132.6,33.6],[132.7,33.6],[132.7,33.7],[132.6,33.7],[132.6,33.6]]]}},{"type":"Feature","id":"grid-132.6-33.7","properties":{"zone_id":"grid-132.6-33.7","population_2020":5800.353,"population_2025":5557.6857,"elderly_65plus_2025":1959.0575,"mesh_count":41,"classification":"B","source_resolution":"500m mesh aggregated for public bundle"},"geometry":{"type":"Polygon","coordinates":[[[132.6,33.7],[132.7,33.7],[132.7,33.800000000000004],[132.6,33.800000000000004],[132.6,33.7]]]}},{"type":"Feature","id":"grid-132.6-33.8","properties":{"zone_id":"grid-132.6-33.8","population_2020":2272.9497,"population_2025":2168.853,"elderly_65plus_2025":850.7432,"mesh_count":18,"classification":"B","source_resolution":"500m mesh aggregated for public bundle"},"geometry":{"type":"Polygon","coordinates":[[[132.6,33.8],[132.7,33.8],[132.7,33.9],[132.6,33.9],[132.6,33.8]]]}},{"type":"Feature","id":"grid-132.6-33.9","properties":{"zone_id":"grid-132.6-33.9","population_2020":3064.2017,"population_2025":2645.78,"elderly_65plus_2025":1853.5619,"mesh_count":55,"classification":"B","source_resolution":"500m mesh aggregated for public bundle"},"geometry":{"type":"Polygon","coordinates":[[[132.6,33.9],[132.7,33.9],[132.7,34.0],[132.6,34.0],[132.6,33.9]]]}},{"type":"Feature","id":"grid-132.7-33.1","properties":{"zone_id":"grid-132.7-33.1","population_2020":112.2768,"population_2025":99.5477,"elderly_65plus_2025":61.4151,"mesh_count":14,"classification":"B","source_resolution":"500m mesh aggregated for public bundle"},"geometry":{"type":"Polygon","coordinates":[[[132.7,33.1],[132.79999999999998,33.1],[132.79999999999998,33.2],[132.7,33.2],[132.7,33.1]]]}},{"type":"Feature","id":"grid-132.7-33.2","properties":{"zone_id":"grid-132.7-33.2","population_2020":4109.1316,"population_2025":3719.8114,"elderly_65plus_2025":1862.687,"mesh_count":117,"classification":"B","source_resolution":"500m mesh aggregated for public bundle"},"geometry":{"type":"Polygon","coordinates":[[[132.7,33.2],[132.79999999999998,33.2],[132.79999999999998,33.300000000000004],[132.7,33.300000000000004],[132.7,33.2]]]}},{"type":"Feature","id":"grid-132.7-33.3","properties":{"zone_id":"grid-132.7-33.3","population_2020":3813.5705,"population_2025":3347.7941,"elderly_65plus_2025":1892.6119,"mesh_count":158,"classification":"B","source_resolution":"500m mesh aggregated for public bundle"},"geometry":{"type":"Polygon","coordinates":[[[132.7,33.3],[132.79999999999998,33.3],[132.79999999999998,33.4],[132.7,33.4],[132.7,33.3]]]}},{"type":"Feature","id":"grid-132.7-33.4","properties":{"zone_id":"grid-132.7-33.4","population_2020":1547.5698,"population_2025":1301.9495,"elderly_65plus_2025":840.3604,"mesh_count":148,"classification":"B","source_resolution":"500m mesh aggregated for public bundle"},"geometry":{"type":"Polygon","coordinates":[[[132.7,33.4],[132.79999999999998,33.4],[132.79999999999998,33.5],[132.7,33.5],[132.7,33.4]]]}},{"type":"Feature","id":"grid-132.7-33.5","properties":{"zone_id":"grid-132.7-33.5","population_2020":2241.8171,"population_2025":1935.5548,"elderly_65plus_2025":1114.6825,"mesh_count":168,"classification":"B","source_resolution":"500m mesh aggregated for public bundle"},"geometry":{"type":"Polygon","coordinates":[[[132.7,33.5],[132.79999999999998,33.5],[132.79999999999998,33.6],[132.7,33.6],[132.7,33.5]]]}},{"type":"Feature","id":"grid-132.7-33.6","properties":{"zone_id":"grid-132.7-33.6","population_2020":2712.5022,"population_2025":2362.1125,"elderly_65plus_2025":1408.1802,"mesh_count":145,"classification":"B","source_resolution":"500m mesh aggregated for public bundle"},"geometry":{"type":"Polygon","coordinates":[[[132.7,33.6],[132.79999999999998,33.6],[132.79999999999998,33.7],[132.7,33.7],[132.7,33.6]]]}},{"type":"Feature","id":"grid-132.7-33.7","properties":{"zone_id":"grid-132.7-33.7","population_2020":77985.4376,"population_2025":75279.692,"elderly_65plus_2025":25000.3994,"mesh_count":237,"classification":"B","source_resolution":"500m mesh aggregated for public bundle"},"geometry":{"type":"Polygon","coordinates":[[[132.7,33.7],[132.79999999999998,33.7],[132.79999999999998,33.800000000000004],[132.7,33.800000000000004],[132.7,33.7]]]}},{"type":"Feature","id":"grid-132.7-33.8","properties":{"zone_id":"grid-132.7-33.8","population_2020":399214.2651,"population_2025":391297.2838,"elderly_65plus_2025":112076.3747,"mesh_count":339,"classification":"B","source_resolution":"500m mesh aggregated for public bundle"},"geometry":{"type":"Polygon","coordinates":[[[132.7,33.8],[132.79999999999998,33.8],[132.79999999999998,33.9],[132.7,33.9],[132.7,33.8]]]}},{"type":"Feature","id":"grid-132.7-33.9","properties":{"zone_id":"grid-132.7-33.9","population_2020":32158.5961,"population_2025":30902.2943,"elderly_65plus_2025":11269.3444,"mesh_count":117,"classification":"B","source_resolution":"500m mesh aggregated for public bundle"},"geometry":{"type":"Polygon","coordinates":[[[132.7,33.9],[132.79999999999998,33.9],[132.79999999999998,34.0],[132.7,34.0],[132.7,33.9]]]}},{"type":"Feature","id":"grid-132.7-34.0","properties":{"zone_id":"grid-132.7-34.0","population_2020":557.7164,"population_2025":518.4038,"elderly_65plus_2025":269.1773,"mesh_count":9,"classification":"B","source_resolution":"500m mesh aggregated for public bundle"},"geometry":{"type":"Polygon","coordinates":[[[132.7,34.0],[132.79999999999998,34.0],[132.79999999999998,34.1],[132.7,34.1],[132.7,34.0]]]}},{"type":"Feature","id":"grid-132.8-33.2","properties":{"zone_id":"grid-132.8-33.2","population_2020":23.9086,"population_2025":21.0179,"elderly_65plus_2025":16.1016,"mesh_count":2,"classification":"B","source_resolution":"500m mesh aggregated for public bundle"},"geometry":{"type":"Polygon","coordinates":[[[132.8,33.2],[132.9,33.2],[132.9,33.300000000000004],[132.8,33.300000000000004],[132.8,33.2]]]}},{"type":"Feature","id":"grid-132.8-33.3","properties":{"zone_id":"grid-132.8-33.3","population_2020":610.647,"population_2025":537.0811,"elderly_65plus_2025":345.9396,"mesh_count":60,"classification":"B","source_resolution":"500m mesh aggregated for public bundle"},"geometry":{"type":"Polygon","coordinates":[[[132.8,33.3],[132.9,33.3],[132.9,33.4],[132.8,33.4],[132.8,33.3]]]}},{"type":"Feature","id":"grid-132.8-33.4","properties":{"zone_id":"grid-132.8-33.4","population_2020":190.4011,"population_2025":162.7059,"elderly_65plus_2025":89.5485,"mesh_count":26,"classification":"B","source_resolution":"500m mesh aggregated for public bundle"},"geometry":{"type":"Polygon","coordinates":[[[132.8,33.4],[132.9,33.4],[132.9,33.5],[132.8,33.5],[132.8,33.4]]]}},{"type":"Feature","id":"grid-132.8-33.5","properties":{"zone_id":"grid-132.8-33.5","population_2020":1124.7705,"population_2025":969.7905,"elderly_65plus_2025":576.8001,"mesh_count":56,"classification":"B","source_resolution":"500m mesh aggregated for public bundle"},"geometry":{"type":"Polygon","coordinates":[[[132.8,33.5],[132.9,33.5],[132.9,33.6],[132.8,33.6],[132.8,33.5]]]}},{"type":"Feature","id":"grid-132.8-33.6","properties":{"zone_id":"grid-132.8-33.6","population_2020":2002.2594,"population_2025":1769.6837,"elderly_65plus_2025":861.7774,"mesh_count":100,"classification":"B","source_resolution":"500m mesh aggregated for public bundle"},"geometry":{"type":"Polygon","coordinates":[[[132.8,33.6],[132.9,33.6],[132.9,33.7],[132.8,33.7],[132.8,33.6]]]}},{"type":"Feature","id":"grid-132.8-33.7","properties":{"zone_id":"grid-132.8-33.7","population_2020":34226.1782,"population_2025":32838.4214,"elderly_65plus_2025":11864.3677,"mesh_count":190,"classification":"B","source_resolution":"500m mesh aggregated for public bundle"},"geometry":{"type":"Polygon","coordinates":[[[132.8,33.7],[132.9,33.7],[132.9,33.800000000000004],[132.8,33.800000000000004],[132.8,33.7]]]}},{"type":"Feature","id":"grid-132.8-33.8","properties":{"zone_id":"grid-132.8-33.8","population_2020":57784.9879,"population_2025":56195.7088,"elderly_65plus_2025":17796.7984,"mesh_count":139,"classification":"B","source_resolution":"500m mesh aggregated for public bundle"},"geometry":{"type":"Polygon","coordinates":[[[132.8,33.8],[132.9,33.8],[132.9,33.9],[132.8,33.9],[132.8,33.8]]]}},{"type":"Feature","id":"grid-132.8-33.9","properties":{"zone_id":"grid-132.8-33.9","population_2020":2090.607,"population_2025":1860.8705,"elderly_65plus_2025":1098.6744,"mesh_count":78,"classification":"B","source_resolution":"500m mesh aggregated for public bundle"},"geometry":{"type":"Polygon","coordinates":[[[132.8,33.9],[132.9,33.9],[132.9,34.0],[132.8,34.0],[132.8,33.9]]]}},{"type":"Feature","id":"grid-132.8-34.0","properties":{"zone_id":"grid-132.8-34.0","population_2020":5897.3031,"population_2025":5395.5043,"elderly_65plus_2025":2595.8659,"mesh_count":76,"classification":"B","source_resolution":"500m mesh aggregated for public bundle"},"geometry":{"type":"Polygon","coordinates":[[[132.8,34.0],[132.9,34.0],[132.9,34.1],[132.8,34.1],[132.8,34.0]]]}},{"type":"Feature","id":"grid-132.8-34.1","properties":{"zone_id":"grid-132.8-34.1","population_2020":293.669,"population_2025":241.5833,"elderly_65plus_2025":178.5422,"mesh_count":8,"classification":"B","source_resolution":"500m mesh aggregated for public bundle"},"geometry":{"type":"Polygon","coordinates":[[[132.8,34.1],[132.9,34.1],[132.9,34.2],[132.8,34.2],[132.8,34.1]]]}},{"type":"Feature","id":"grid-132.9-33.4","properties":{"zone_id":"grid-132.9-33.4","population_2020":30.2323,"population_2025":24.0863,"elderly_65plus_2025":22.7436,"mesh_count":9,"classification":"B","source_resolution":"500m mesh aggregated for public bundle"},"geometry":{"type":"Polygon","coordinates":[[[132.9,33.4],[133.0,33.4],[133.0,33.5],[132.9,33.5],[132.9,33.4]]]}},{"type":"Feature","id":"grid-132.9-33.5","properties":{"zone_id":"grid-132.9-33.5","population_2020":332.4282,"population_2025":272.0614,"elderly_65plus_2025":186.1824,"mesh_count":36,"classification":"B","source_resolution":"500m mesh aggregated for public bundle"},"geometry":{"type":"Polygon","coordinates":[[[132.9,33.5],[133.0,33.5],[133.0,33.6],[132.9,33.6],[132.9,33.5]]]}},{"type":"Feature","id":"grid-132.9-33.6","properties":{"zone_id":"grid-132.9-33.6","population_2020":3599.489,"population_2025":3107.0459,"elderly_65plus_2025":1463.4025,"mesh_count":123,"classification":"B","source_resolution":"500m mesh aggregated for public bundle"},"geometry":{"type":"Polygon","coordinates":[[[132.9,33.6],[133.0,33.6],[133.0,33.7],[132.9,33.7],[132.9,33.6]]]}},{"type":"Feature","id":"grid-132.9-33.7","properties":{"zone_id":"grid-132.9-33.7","population_2020":5112.0014,"population_2025":4843.7111,"elderly_65plus_2025":1904.9501,"mesh_count":94,"classification":"B","source_resolution":"500m mesh aggregated for public bundle"},"geometry":{"type":"Polygon","coordinates":[[[132.9,33.7],[133.0,33.7],[133.0,33.800000000000004],[132.9,33.800000000000004],[132.9,33.7]]]}},{"type":"Feature","id":"grid-132.9-33.8","properties":{"zone_id":"grid-132.9-33.8","population_2020":2829.8149,"population_2025":2704.1206,"elderly_65plus_2025":1134.2675,"mesh_count":70,"classification":"B","source_resolution":"500m mesh aggregated for public bundle"},"geometry":{"type":"Polygon","coordinates":[[[132.9,33.8],[133.0,33.8],[133.0,33.9],[132.9,33.9],[132.9,33.8]]]}},{"type":"Feature","id":"grid-132.9-33.9","properties":{"zone_id":"grid-132.9-33.9","population_2020":674.7397,"population_2025":610.5959,"elderly_65plus_2025":321.5467,"mesh_count":35,"classification":"B","source_resolution":"500m mesh aggregated for public bundle"},"geometry":{"type":"Polygon","coordinates":[[[132.9,33.9],[133.0,33.9],[133.0,34.0],[132.9,34.0],[132.9,33.9]]]}},{"type":"Feature","id":"grid-132.9-34.0","properties":{"zone_id":"grid-132.9-34.0","population_2020":71509.0754,"population_2025":68143.6499,"elderly_65plus_2025":22764.3559,"mesh_count":248,"classification":"B","source_resolution":"500m mesh aggregated for public bundle"},"geometry":{"type":"Polygon","coordinates":[[[132.9,34.0],[133.0,34.0],[133.0,34.1],[132.9,34.1],[132.9,34.0]]]}},{"type":"Feature","id":"grid-132.9-34.1","properties":{"zone_id":"grid-132.9-34.1","population_2020":10297.7515,"population_2025":9642.1243,"elderly_65plus_2025":3680.5574,"mesh_count":66,"classification":"B","source_resolution":"500m mesh aggregated for public bundle"},"geometry":{"type":"Polygon","coordinates":[[[132.9,34.1],[133.0,34.1],[133.0,34.2],[132.9,34.2],[132.9,34.1]]]}},{"type":"Feature","id":"grid-132.9-34.2","properties":{"zone_id":"grid-132.9-34.2","population_2020":1928.0211,"population_2025":1676.2,"elderly_65plus_2025":1027.3904,"mesh_count":49,"classification":"B","source_resolution":"500m mesh aggregated for public bundle"},"geometry":{"type":"Polygon","coordinates":[[[132.9,34.2],[133.0,34.2],[133.0,34.300000000000004],[132.9,34.300000000000004],[132.9,34.2]]]}},{"type":"Feature","id":"grid-133.0-33.5","properties":{"zone_id":"grid-133.0-33.5","population_2020":509.9111,"population_2025":428.821,"elderly_65plus_2025":300.293,"mesh_count":43,"classification":"B","source_resolution":"500m mesh aggregated for public bundle"},"geometry":{"type":"Polygon","coordinates":[[[133.0,33.5],[133.1,33.5],[133.1,33.6],[133.0,33.6],[133.0,33.5]]]}},{"type":"Feature","id":"grid-133.0-33.6","properties":{"zone_id":"grid-133.0-33.6","population_2020":666.22,"population_2025":559.644,"elderly_65plus_2025":346.4884,"mesh_count":53,"classification":"B","source_resolution":"500m mesh aggregated for public bundle"},"geometry":{"type":"Polygon","coordinates":[[[133.0,33.6],[133.1,33.6],[133.1,33.7],[133.0,33.7],[133.0,33.6]]]}},{"type":"Feature","id":"grid-133.0-33.7","properties":{"zone_id":"grid-133.0-33.7","population_2020":104.0023,"population_2025":86.0242,"elderly_65plus_2025":63.3679,"mesh_count":23,"classification":"B","source_resolution":"500m mesh aggregated for public bundle"},"geometry":{"type":"Polygon","coordinates":[[[133.0,33.7],[133.1,33.7],[133.1,33.800000000000004],[133.0,33.800000000000004],[133.0,33.7]]]}},{"type":"Feature","id":"grid-133.0-33.8","properties":{"zone_id":"grid-133.0-33.8","population_2020":8786.4775,"population_2025":8141.5919,"elderly_65plus_2025":3670.462,"mesh_count":126,"classification":"B","source_resolution":"500m mesh aggregated for public bundle"},"geometry":{"type":"Polygon","coordinates":[[[133.0,33.8],[133.1,33.8],[133.1,33.9],[133.0,33.9],[133.0,33.8]]]}},{"type":"Feature","id":"grid-133.0-33.9","properties":{"zone_id":"grid-133.0-33.9","population_2020":35482.0463,"population_2025":33735.5072,"elderly_65plus_2025":12624.3194,"mesh_count":218,"classification":"B","source_resolution":"500m mesh aggregated for public bundle"},"geometry":{"type":"Polygon","coordinates":[[[133.0,33.9],[133.1,33.9],[133.1,34.0],[133.0,34.0],[133.0,33.9]]]}},{"type":"Feature","id":"grid-133.0-34.0","properties":{"zone_id":"grid-133.0-34.0","population_2020":44514.9714,"population_2025":42336.6302,"elderly_65plus_2025":14863.5558,"mesh_count":98,"classification":"B","source_resolution":"500m mesh aggregated for public bundle"},"geometry":{"type":"Polygon","coordinates":[[[133.0,34.0],[133.1,34.0],[133.1,34.1],[133.0,34.1],[133.0,34.0]]]}},{"type":"Feature","id":"grid-133.0-34.1","properties":{"zone_id":"grid-133.0-34.1","population_2020":5473.688,"population_2025":4949.7975,"elderly_65plus_2025":2436.9173,"mesh_count":106,"classification":"B","source_resolution":"500m mesh aggregated for public bundle"},"geometry":{"type":"Polygon","coordinates":[[[133.0,34.1],[133.1,34.1],[133.1,34.2],[133.0,34.2],[133.0,34.1]]]}},{"type":"Feature","id":"grid-133.0-34.2","properties":{"zone_id":"grid-133.0-34.2","population_2020":5724.3504,"population_2025":5133.7357,"elderly_65plus_2025":2686.4326,"mesh_count":93,"classification":"B","source_resolution":"500m mesh aggregated for public bundle"},"geometry":{"type":"Polygon","coordinates":[[[133.0,34.2],[133.1,34.2],[133.1,34.300000000000004],[133.0,34.300000000000004],[133.0,34.2]]]}},{"type":"Feature","id":"grid-133.1-33.7","properties":{"zone_id":"grid-133.1-33.7","population_2020":15.1873,"population_2025":11.5737,"elderly_65plus_2025":6.6585,"mesh_count":5,"classification":"B","source_resolution":"500m mesh aggregated for public bundle"},"geometry":{"type":"Polygon","coordinates":[[[133.1,33.7],[133.2,33.7],[133.2,33.800000000000004],[133.1,33.800000000000004],[133.1,33.7]]]}},{"type":"Feature","id":"grid-133.1-33.8","properties":{"zone_id":"grid-133.1-33.8","population_2020":11232.9383,"population_2025":10606.5396,"elderly_65plus_2025":4088.5641,"mesh_count":81,"classification":"B","source_resolution":"500m mesh aggregated for public bundle"},"geometry":{"type":"Polygon","coordinates":[[[133.1,33.8],[133.2,33.8],[133.2,33.9],[133.1,33.9],[133.1,33.8]]]}},{"type":"Feature","id":"grid-133.1-33.9","properties":{"zone_id":"grid-133.1-33.9","population_2020":38941.8217,"population_2025":38042.6491,"elderly_65plus_2025":10633.1449,"mesh_count":105,"classification":"B","source_resolution":"500m mesh aggregated for public bundle"},"geometry":{"type":"Polygon","coordinates":[[[133.1,33.9],[133.2,33.9],[133.2,34.0],[133.1,34.0],[133.1,33.9]]]}},{"type":"Feature","id":"grid-133.1-34.1","properties":{"zone_id":"grid-133.1-34.1","population_2020":102.8305,"population_2025":96.6135,"elderly_65plus_2025":40.4272,"mesh_count":4,"classification":"B","source_resolution":"500m mesh aggregated for public bundle"},"geometry":{"type":"Polygon","coordinates":[[[133.1,34.1],[133.2,34.1],[133.2,34.2],[133.1,34.2],[133.1,34.1]]]}},{"type":"Feature","id":"grid-133.1-34.2","properties":{"zone_id":"grid-133.1-34.2","population_2020":6663.4258,"population_2025":6204.5015,"elderly_65plus_2025":2740.4956,"mesh_count":87,"classification":"B","source_resolution":"500m mesh aggregated for public bundle"},"geometry":{"type":"Polygon","coordinates":[[[133.1,34.2],[133.2,34.2],[133.2,34.300000000000004],[133.1,34.300000000000004],[133.1,34.2]]]}},{"type":"Feature","id":"grid-133.2-33.8","properties":{"zone_id":"grid-133.2-33.8","population_2020":71.5454,"population_2025":53.6032,"elderly_65plus_2025":35.9737,"mesh_count":15,"classification":"B","source_resolution":"500m mesh aggregated for public bundle"},"geometry":{"type":"Polygon","coordinates":[[[133.2,33.8],[133.29999999999998,33.8],[133.29999999999998,33.9],[133.2,33.9],[133.2,33.8]]]}},{"type":"Feature","id":"grid-133.2-33.9","properties":{"zone_id":"grid-133.2-33.9","population_2020":82295.089,"population_2025":77925.0508,"elderly_65plus_2025":25980.1805,"mesh_count":172,"classification":"B","source_resolution":"500m mesh aggregated for public bundle"},"geometry":{"type":"Polygon","coordinates":[[[133.2,33.9],[133.29999999999998,33.9],[133.29999999999998,34.0],[133.2,34.0],[133.2,33.9]]]}},{"type":"Feature","id":"grid-133.2-34.1","properties":{"zone_id":"grid-133.2-34.1","population_2020":11.0042,"population_2025":8.606,"elderly_65plus_2025":7.5855,"mesh_count":2,"classification":"B","source_resolution":"500m mesh aggregated for public bundle"},"geometry":{"type":"Polygon","coordinates":[[[133.2,34.1],[133.29999999999998,34.1],[133.29999999999998,34.2],[133.2,34.2],[133.2,34.1]]]}},{"type":"Feature","id":"grid-133.2-34.2","properties":{"zone_id":"grid-133.2-34.2","population_2020":2590.9588,"population_2025":2210.2789,"elderly_65plus_2025":980.7496,"mesh_count":27,"classification":"B","source_resolution":"500m mesh aggregated for public bundle"},"geometry":{"type":"Polygon","coordinates":[[[133.2,34.2],[133.29999999999998,34.2],[133.29999999999998,34.300000000000004],[133.2,34.300000000000004],[133.2,34.2]]]}},{"type":"Feature","id":"grid-133.3-33.8","properties":{"zone_id":"grid-133.3-33.8","population_2020":31.4329,"population_2025":25.8896,"elderly_65plus_2025":14.7878,"mesh_count":6,"classification":"B","source_resolution":"500m mesh aggregated for public bundle"},"geometry":{"type":"Polygon","coordinates":[[[133.3,33.8],[133.4,33.8],[133.4,33.9],[133.3,33.9],[133.3,33.8]]]}},{"type":"Feature","id":"grid-133.3-33.9","properties":{"zone_id":"grid-133.3-33.9","population_2020":48683.8082,"population_2025":45700.6446,"elderly_65plus_2025":16370.4504,"mesh_count":145,"classification":"B","source_resolution":"500m mesh aggregated for public bundle"},"geometry":{"type":"Polygon","coordinates":[[[133.3,33.9],[133.4,33.9],[133.4,34.0],[133.3,34.0],[133.3,33.9]]]}},{"type":"Feature","id":"grid-133.3-34.1","properties":{"zone_id":"grid-133.3-34.1","population_2020":138.2036,"population_2025":134.1405,"elderly_65plus_2025":63.418,"mesh_count":3,"classification":"B","source_resolution":"500m mesh aggregated for public bundle"},"geometry":{"type":"Polygon","coordinates":[[[133.3,34.1],[133.4,34.1],[133.4,34.2],[133.3,34.2],[133.3,34.1]]]}},{"type":"Feature","id":"grid-133.4-33.8","properties":{"zone_id":"grid-133.4-33.8","population_2020":136.7763,"population_2025":117.0212,"elderly_65plus_2025":62.6803,"mesh_count":18,"classification":"B","source_resolution":"500m mesh aggregated for public bundle"},"geometry":{"type":"Polygon","coordinates":[[[133.4,33.8],[133.5,33.8],[133.5,33.9],[133.4,33.9],[133.4,33.8]]]}},{"type":"Feature","id":"grid-133.4-33.9","properties":{"zone_id":"grid-133.4-33.9","population_2020":17750.8799,"population_2025":16377.941,"elderly_65plus_2025":6428.2625,"mesh_count":106,"classification":"B","source_resolution":"500m mesh aggregated for public bundle"},"geometry":{"type":"Polygon","coordinates":[[[133.4,33.9],[133.5,33.9],[133.5,34.0],[133.4,34.0],[133.4,33.9]]]}},{"type":"Feature","id":"grid-133.5-33.8","properties":{"zone_id":"grid-133.5-33.8","population_2020":4.2087,"population_2025":3.4053,"elderly_65plus_2025":3.4053,"mesh_count":1,"classification":"B","source_resolution":"500m mesh aggregated for public bundle"},"geometry":{"type":"Polygon","coordinates":[[[133.5,33.8],[133.6,33.8],[133.6,33.9],[133.5,33.9],[133.5,33.8]]]}},{"type":"Feature","id":"grid-133.5-33.9","properties":{"zone_id":"grid-133.5-33.9","population_2020":42183.521,"population_2025":39084.1759,"elderly_65plus_2025":13546.1579,"mesh_count":112,"classification":"B","source_resolution":"500m mesh aggregated for public bundle"},"geometry":{"type":"Polygon","coordinates":[[[133.5,33.9],[133.6,33.9],[133.6,34.0],[133.5,34.0],[133.5,33.9]]]}},{"type":"Feature","id":"grid-133.5-34.0","properties":{"zone_id":"grid-133.5-34.0","population_2020":16138.3094,"population_2025":14992.8256,"elderly_65plus_2025":5577.9389,"mesh_count":44,"classification":"B","source_resolution":"500m mesh aggregated for public bundle"},"geometry":{"type":"Polygon","coordinates":[[[133.5,34.0],[133.6,34.0],[133.6,34.1],[133.5,34.1],[133.5,34.0]]]}},{"type":"Feature","id":"grid-133.6-33.8","properties":{"zone_id":"grid-133.6-33.8","population_2020":6.4976,"population_2025":6.0174,"elderly_65plus_2025":1.6795,"mesh_count":1,"classification":"B","source_resolution":"500m mesh aggregated for public bundle"},"geometry":{"type":"Polygon","coordinates":[[[133.6,33.8],[133.7,33.8],[133.7,33.9],[133.6,33.9],[133.6,33.8]]]}},{"type":"Feature","id":"grid-133.6-33.9","properties":{"zone_id":"grid-133.6-33.9","population_2020":3591.9233,"population_2025":3251.8587,"elderly_65plus_2025":1574.3949,"mesh_count":117,"classification":"B","source_resolution":"500m mesh aggregated for public bundle"},"geometry":{"type":"Polygon","coordinates":[[[133.6,33.9],[133.7,33.9],[133.7,34.0],[133.6,34.0],[133.6,33.9]]]}},{"type":"Feature","id":"grid-133.6-34.0","properties":{"zone_id":"grid-133.6-34.0","population_2020":923.9043,"population_2025":850.3498,"elderly_65plus_2025":377.1672,"mesh_count":40,"classification":"B","source_resolution":"500m mesh aggregated for public bundle"},"geometry":{"type":"Polygon","coordinates":[[[133.6,34.0],[133.7,34.0],[133.7,34.1],[133.6,34.1],[133.6,34.0]]]}}],"properties":{"source":"MLIT R6 future population mesh 500m","license":"CC-BY-4.0","classification":"B","note":"Public bundle aggregates the acquired 500m mesh into 0.1 degree cells."}}